IRIDIUM 65 [+]          
1 25288U 98021D   16010.34088647  .00000217  00000-0  70594-4 0  9992
2 25288  86.3963  82.8720 0001979  99.1626 260.9794 14.34215814929930
IRIDIUM 66 [+]          
1 25289U 98021E   16010.35631416  .00000274  00000-0  90845-4 0  9996
2 25289  86.3963  82.7734 0002061  96.5483 310.4716 14.34215720929931
IRIDIUM 67 [+]          
1 25290U 98021F   16010.35356292  .00000273  00000-0  90286-4 0  9992
2 25290  86.3964  82.9032 0002117  97.2574 262.8862 14.34215519929947
IRIDIUM 68 [+]          
1 25291U 98021G   16010.29015476  .00000260  00000-0  85814-4 0  9999
2 25291  86.3966  83.0386 0002078  94.6989 265.4444 14.34215650929908
IRIDIUM 69 [-]          
1 25319U 98026A   16010.37249484  .00000190  00000-0  55794-4 0  9998
2 25319  86.4011 106.1008 0002606 143.4350 283.6722 14.38535976927731
IRIDIUM 71 [-]          
1 25320U 98026B   16010.37032589  .00000171  00000-0  49162-4 0  9997
2 25320  86.3991 102.2456 0000398 161.9535 241.0163 14.38964110928148
IRIDIUM 70 [+]          
1 25342U 98032A   16010.54398953  .00000236  00000-0  77240-4 0  9997
2 25342  86.3969  83.1494 0002011  95.7336   3.3051 14.34215819924044
IRIDIUM 72 [+]          
1 25343U 98032B   16010.60129874  .00000279  00000-0  92520-4 0  9994
2 25343  86.3964  82.7714 0002087  96.8656   3.4078 14.34215584924050
IRIDIUM 73 [-]          
1 25344U 98032C   16010.56967523  .00000235  00000-0  56864-4 0  9994
2 25344  86.4414  64.2268 0002515  77.6123  82.6908 14.48874173931737
IRIDIUM 74 [S]          
1 25345U 98032D   16010.30536398  .00000312  00000-0  87288-4 0  9999
2 25345  86.4476  83.2240 0002288 101.0895 326.8664 14.42953519927207
IRIDIUM 75 [+]          
1 25346U 98032E   16010.61921711  .00000265  00000-0  87441-4 0  9999
2 25346  86.3966  82.9976 0002107  97.0387  62.8974 14.34215715924627
IRIDIUM 3 [+]           
1 25431U 98048A   16010.44206295  .00000264  00000-0  87157-4 0  9998
2 25431  86.3989 114.6746 0001929  98.0293 308.1236 14.34219242910545
IRIDIUM 76 [+]          
1 25432U 98048B   16010.61370247  .00000272  00000-0  90011-4 0  9999
2 25432  86.3987 114.3742 0002039  93.2247  20.4080 14.34219790910556
IRIDIUM 82 [+]          
1 25467U 98051A   16010.56100355  .00000238  00000-0  78033-4 0  9998
2 25467  86.3970 240.9639 0001942  95.7980 264.3437 14.34220026911561
IRIDIUM 81 [+]          
1 25468U 98051B   16010.20580913  .00000039  00000-0  68967-5 0  9997
2 25468  86.3959 240.7596 0002146  88.4506 271.6936 14.34217470907737
IRIDIUM 80 [+]          
1 25469U 98051C   16010.61107859  .00000195  00000-0  62521-4 0  9999
2 25469  86.3960 240.8533 0002141  85.9460 303.5014 14.34218084907798
IRIDIUM 77 [+]          
1 25471U 98051E   16010.61736571  .00000193  00000-0  61771-4 0  9995
2 25471  86.3951 240.4727 0001921  83.9298 305.3444 14.34221462912993
IRIDIUM 2 [-]           
1 25527U 98066A   16010.56610390  .00003131  00000-0  16906-3 0  9991
2 25527  85.5318 340.8389 0008444 197.7957 221.2433 15.14308074938575
IRIDIUM 86 [+]          
1 25528U 98066B   16010.50044073  .00000019  00000-0 -30644-6 0  9996
2 25528  86.3951 208.7112 0001671  84.3017 275.8369 14.34219566904302
IRIDIUM 84 [+]          
1 25530U 98066D   16010.53215007  .00000011  00000-0 -31140-5 0  9992
2 25530  86.3953 208.8539 0001946  86.0713 274.0705 14.34219414901942
IRIDIUM 83 [+]          
1 25531U 98066E   16010.56385719  .00000026  00000-0  21194-5 0  9997
2 25531  86.3954 208.9447 0002023  89.2814 270.8614 14.34217647899302
IRIDIUM 20 [+]          
1 25577U 98074A   16010.41411281  .00000265  00000-0  87448-4 0  9992
2 25577  86.3984 114.3861 0002045  98.7353 261.4074 14.34219541893363
IRIDIUM 11 [+]          
1 25578U 98074B   16010.36956269  .00000268  00000-0  88617-4 0  9999
2 25578  86.3983 114.6115 0002047 102.2804 322.5338 14.34219610902328
IRIDIUM 14 [S]          
1 25777U 99032A   16010.33851564  .00000271  00000-0  89553-4 0  9998
2 25777  86.3965  82.9536 0001965  97.8792 315.4777 14.34215421879592
IRIDIUM 21 [+]          
1 25778U 99032B   16010.57556838  .00000256  00000-0  84254-4 0  9997
2 25778  86.3967  82.8798 0002187  93.7919 266.3527 14.34215842873067
IRIDIUM 91 [+]          
1 27372U 02005A   16010.48793723  .00000177  00000-0  56081-4 0  9998
2 27372  86.4004 146.7106 0002179 102.2961 326.5811 14.34216228736566
IRIDIUM 90 [S]          
1 27373U 02005B   16010.55495228  .00000039  00000-0  54895-5 0  9995
2 27373  86.4463 208.9115 0001850  81.1139 279.0271 14.42943687735841
IRIDIUM 94 [S]          
1 27374U 02005C   16010.38907444  .00000282  00000-0  93499-4 0  9997
2 27374  86.3985 114.7233 0001677  64.3181   3.0063 14.34219927740879
IRIDIUM 95 [+]          
1 27375U 02005D   16010.51266404  .00000116  00000-0  34307-4 0  9996
2 27375  86.4003 146.4839 0002002  93.0055 267.1370 14.34215474735857
IRIDIUM 96 [S]          
1 27376U 02005E   16010.49067423  .00000016  00000-0 -12598-5 0  9993
2 27376  86.4005 177.9382 0003296  70.0612 290.0939 14.34215948741053
IRIDIUM 97 [+]          
1 27450U 02031A   16010.52871552  .00000006  00000-0 -48837-5 0  9999
2 27450  86.3971 177.7917 0002150  96.9394 263.2047 14.34219717715175
IRIDIUM 98 [S]          
1 27451U 02031B   16010.59185500  .00000200  00000-0  64257-4 0  9996
2 27451  86.3952 241.0542 0002148  89.1850 299.2113 14.34219044716258
